PROBA-1                 
1 26958U 01049B   23008.47981745  .00002873  00000+0  24204-3 0  9996
2 26958  97.8517 333.7069 0071162  20.9919 339.4198 14.97078673155142
BIRD 2                  
1 26959U 01049C   23008.25889930  .00028903  00000+0  48738-3 0  9996
2 26959  97.7661 119.8489 0005417   0.3889 359.7365 15.51621124178613
CUTE-1 (CO-55)          
1 27844U 03031E   23007.47744893  .00000428  00000+0  21097-3 0  9995
2 27844  98.6791  17.0993 0009064 227.1796 132.8621 14.22578289 12889
CUBESAT XI-IV (CO-57)   
1 27848U 03031J   23008.49001899  .00000330  00000+0  16855-3 0  9992
2 27848  98.6831  18.5665 0008811 239.9571 120.0733 14.22118148 12855
GENESIS 1               
1 29252U 06029A   23007.73241936  .00010463  00000+0  43980-3 0  9994
2 29252  64.5221 119.3164 0045373 232.4815 127.2183 15.22920062910052
FALCONSAT-3             
1 30776U 07006E   23008.29558933  .00478277  91734-4  11613-2 0  9990
2 30776  35.4229 333.9148 0009556 223.7864 136.2124 15.95150365881701
GENESIS 2               
1 31789U 07028A   23007.82636277  .00009064  00000+0  38850-3 0  9993
2 31789  64.4946 162.7245 0059615 284.2724  75.1785 15.21700354856971
APRIZESAT 4             
1 35684U 09041D   23007.78290966  .00001001  00000+0  13777-3 0  9998
2 35684  98.3002  33.3513 0047677  57.0438 303.5344 14.79909992725281
APRIZESAT 3             
1 35686U 09041F   23008.51467613  .00001843  00000+0  19662-3 0  9990
2 35686  98.1012 104.7242 0070374 235.4737 123.9822 14.88380181729156
PROBA-2                 
1 36037U 09059B   23008.25644883  .00000405  00000+0  10797-3 0  9990
2 36037  98.2205 196.0251 0013090 192.7430 167.3437 14.53364904699093
APRIZESAT 5             
1 37792U 11044E   23008.11456073  .00001039  00000+0  15472-3 0  9992
2 37792  98.2976 254.2458 0058703  72.0556 288.7040 14.76043496613338
APRIZESAT 6             
1 37793U 11044F   23007.86345233  .00000885  00000+0  14383-3 0  9997
2 37793  98.3749 231.6060 0047381 126.8986 297.6411 14.73023930611956
PROBA-V                 
1 39159U 13021A   23008.32421081  .00000056  00000+0  42732-4 0  9990
2 39159  98.3359  38.6559 0003735 196.4647 163.6412 14.23069422502460
STPSAT-3                
1 39380U 13064A   23008.29974888  .00090300  00000+0  90338-3 0  9992
2 39380  40.4943 231.0012 0012766 321.8195  38.1724 15.64393923512771
APRIZESAT 7             
1 39416U 13066A   23007.90580316  .00001712  00000+0  20444-3 0  9990
2 39416  97.5984 343.1405 0041577  45.9287 314.5339 14.84863608494379
APRIZESAT 8             
1 39425U 13066K   23007.86026571  .00001292  00000+0  16551-3 0  9990
2 39425  97.6561 334.9679 0052678  91.0549 269.6700 14.81967700493230
BUGSAT-1 (TITA)         
1 40014U 14033E   23007.98587375  .00004267  00000+0  36592-3 0  9990
2 40014  98.1450  19.9161 0032064  81.1983 279.2883 14.97697247466742
SAUDISAT 4              
1 40016U 14033G   23008.01237018  .00001008  00000+0  15164-3 0  9995
2 40016  97.6340 196.5960 0047448 196.0901 163.8806 14.75781574460585
APRIZESAT 9             
1 40018U 14033J   23008.23901167  .00000877  00000+0  14741-3 0  9997
2 40018  97.7308 173.0935 0069381 276.2342  83.0965 14.70491532458879
APRIZESAT 10            
1 40019U 14033K   23008.26570989  .00000615  00000+0  11164-3 0  9991
2 40019  97.7906 163.2606 0082811 323.6558  35.9040 14.67515746458015
TDS 1                   
1 40076U 14037H   23008.40226663  .00003630  00000+0  41509-3 0  9997
2 40076  98.3642 257.0929 0007598 121.5467 238.6490 14.86674112460226
TIANTUO 2               
1 40144U 14053B   23008.44541228  .00010661  00000+0  26325-3 0  9993
2 40144  97.1783  89.4565 0010214 168.9932 320.3833 15.40628078466620
TECHNOSAT               
1 42829U 17042E   23008.35529462  .00002045  00000+0  20397-3 0  9992
2 42829  97.3970 215.3481 0014947  45.5794 314.6647 14.92487635298644
FLYING LAPTOP           
1 42831U 17042G   23008.14896428  .00002119  00000+0  21224-3 0  9993
2 42831  97.3993 215.4965 0014945  46.5824 313.6598 14.92291908298610
HAWK-A                  
1 43765U 18099H   23008.15462642  .00002667  00000+0  23091-3 0  9993
2 43765  97.5963  75.8095 0013442 308.5279  51.4737 14.97911731223779
HAWK-B                  
1 43794U 18099AN  23008.15500332  .00002633  00000+0  22802-3 0  9996
2 43794  97.5962  75.8098 0013519 308.7693  51.2321 14.97914550223768
HAWK-C                  
1 43799U 18099AT  23007.62038776  .00000340  00000+0  33751-4 0  9999
2 43799  97.5968  75.1940 0013271 310.7019  49.3050 14.97903823224431
SALSAT                  
1 46495U 20068K   23007.27881670  .00004545  00000+0  31835-3 0  9995
2 46495  97.7525 314.0117 0014985 310.5728  49.4193 15.05658610124841
